TRANSPORTER-16 OBJECT AW
1 68460U 26067AW  26104.14757510  .00004570  00000+0  23596-3 0  9991
2 68460  97.4448  63.5418 0004289 302.0289  58.0528 15.16796021  2228
