{
  "norad_id": 68460,
  "name": "TRANSPORTER-16 OBJECT AW",
  "history": [
    {
      "epoch": "2026-04-14T03:32:30.488640Z",
      "apogee_km": 518.4881382310277,
      "perigee_km": 512.5746116256469,
      "latitude_deg": 7.99681927434143e-05,
      "longitude_deg": 168.08658351627847,
      "height_km": 517.0522562378045,
      "semi_major_axis_km": 6893.6683749283375,
      "eccentricity": 0.00042891,
      "inclination_deg": 97.4448,
      "raan_deg": 63.5418,
      "arg_perigee_deg": 302.0289,
      "mean_anomaly_deg": 58.0528,
      "mean_motion_rev_day": 15.16796021
    }
  ]
}